{
  "type": "FeatureCollection",
  "features": [
    {
      "type": "Feature",
      "properties": {
        "norad_id": 66527,
        "name": "STARLINK-35935",
        "group": "last-30-days",
        "lat": 36.802496845608616,
        "lon": 169.4792355290425,
        "alt_km": 339.77822272864887,
        "timestamp": "2025-12-02T07:10:07.867453+00:00",
        "meta_object_name": "STARLINK-35935",
        "meta_object_id": "2025-265M",
        "meta_epoch": "2025-12-01T20:00:01.999008",
        "meta_mean_motion": 15.75072293,
        "meta_eccentricity": 0.0001986,
        "meta_inclination": 42.9996,
        "meta_ra_of_asc_node": 118.8948,
        "meta_arg_of_pericenter": 274.1369,
        "meta_mean_anomaly": 25.5621,
        "meta_ephemeris_type": 0,
        "meta_classification_type": "U",
        "meta_norad_cat_id": 66527,
        "meta_element_set_no": 999,
        "meta_rev_at_epoch": 324,
        "meta_bstar": -0.00036548,
        "meta_mean_motion_dot": -0.0005633,
        "meta_mean_motion_ddot": 0,
        "tle_line1": "1 66527U 25265M   25335.83335647 -.00056330  00000+0 -36548-3 0  9990",
        "tle_line2": "2 66527  42.9996 118.8948 0001986 274.1369  25.5621 15.75072293  3243"
      },
      "geometry": {
        "type": "Point",
        "coordinates": [
          169.4792355290425,
          36.802496845608616
        ]
      }
    },
    {
      "type": "Feature",
      "properties": {
        "norad_id": 66528,
        "name": "STARLINK-35928",
        "group": "last-30-days",
        "lat": 37.570910015178285,
        "lon": 171.71346919626956,
        "alt_km": 339.4586424327317,
        "timestamp": "2025-12-02T07:10:07.867473+00:00",
        "meta_object_name": "STARLINK-35928",
        "meta_object_id": "2025-265N",
        "meta_epoch": "2025-12-01T20:00:01.999008",
        "meta_mean_motion": 15.75021307,
        "meta_eccentricity": 0.0001739,
        "meta_inclination": 42.9995,
        "meta_ra_of_asc_node": 118.8895,
        "meta_arg_of_pericenter": 272.8373,
        "meta_mean_anomaly": 28.8198,
        "meta_ephemeris_type": 0,
        "meta_classification_type": "U",
        "meta_norad_cat_id": 66528,
        "meta_element_set_no": 999,
        "meta_rev_at_epoch": 324,
        "meta_bstar": 0.0002208,
        "meta_mean_motion_dot": 0.00033548,
        "meta_mean_motion_ddot": 0,
        "tle_line1": "1 66528U 25265N   25335.83335647  .00033548  00000+0  22080-3 0  9991",
        "tle_line2": "2 66528  42.9995 118.8895 0001739 272.8373  28.8198 15.75021307  3245"
      },
      "geometry": {
        "type": "Point",
        "coordinates": [
          171.71346919626956,
          37.570910015178285
        ]
      }
    },
    {
      "type": "Feature",
      "properties": {
        "norad_id": 66529,
        "name": "STARLINK-35933",
        "group": "last-30-days",
        "lat": 38.29249247786889,
        "lon": 173.98057846354516,
        "alt_km": 338.9209359036395,
        "timestamp": "2025-12-02T07:10:07.867486+00:00",
        "meta_object_name": "STARLINK-35933",
        "meta_object_id": "2025-265P",
        "meta_epoch": "2025-12-01T20:00:01.999008",
        "meta_mean_motion": 15.75036766,
        "meta_eccentricity": 0.0001724,
        "meta_inclination": 42.9996,
        "meta_ra_of_asc_node": 118.8845,
        "meta_arg_of_pericenter": 297.4204,
        "meta_mean_anomaly": 6.1179,
        "meta_ephemeris_type": 0,
        "meta_classification_type": "U",
        "meta_norad_cat_id": 66529,
        "meta_element_set_no": 999,
        "meta_rev_at_epoch": 324,
        "meta_bstar": 0.00036118,
        "meta_mean_motion_dot": 0.00055363,
        "meta_mean_motion_ddot": 0,
        "tle_line1": "1 66529U 25265P   25335.83335647  .00055363  00000+0  36118-3 0  9998",
        "tle_line2": "2 66529  42.9996 118.8845 0001724 297.4204   6.1179 15.75036766  3245"
      },
      "geometry": {
        "type": "Point",
        "coordinates": [
          173.98057846354516,
          38.29249247786889
        ]
      }
    },
    {
      "type": "Feature",
      "properties": {
        "norad_id": 66530,
        "name": "STARLINK-35961",
        "group": "last-30-days",
        "lat": 38.964634629924305,
        "lon": 176.2755787420326,
        "alt_km": 338.8947158810761,
        "timestamp": "2025-12-02T07:10:07.867496+00:00",
        "meta_object_name": "STARLINK-35961",
        "meta_object_id": "2025-265Q",
        "meta_epoch": "2025-12-01T20:00:01.999008",
        "meta_mean_motion": 15.75032095,
        "meta_eccentricity": 0.0001625,
        "meta_inclination": 42.9996,
        "meta_ra_of_asc_node": 118.8797,
        "meta_arg_of_pericenter": 294.661,
        "meta_mean_anomaly": 10.8125,
        "meta_ephemeris_type": 0,
        "meta_classification_type": "U",
        "meta_norad_cat_id": 66530,
        "meta_element_set_no": 999,
        "meta_rev_at_epoch": 324,
        "meta_bstar": 0.00027854,
        "meta_mean_motion_dot": 0.00042511,
        "meta_mean_motion_ddot": 0,
        "tle_line1": "1 66530U 25265Q   25335.83335647  .00042511  00000+0  27854-3 0  9998",
        "tle_line2": "2 66530  42.9996 118.8797 0001625 294.6610  10.8125 15.75032095  3247"
      },
      "geometry": {
        "type": "Point",
        "coordinates": [
          176.2755787420326,
          38.964634629924305
        ]
      }
    },
    {
      "type": "Feature",
      "properties": {
        "norad_id": 66531,
        "name": "STARLINK-35960",
        "group": "last-30-days",
        "lat": 39.580673200741046,
        "lon": 178.57341451706037,
        "alt_km": 339.4195693257734,
        "timestamp": "2025-12-02T07:10:07.867509+00:00",
        "meta_object_name": "STARLINK-35960",
        "meta_object_id": "2025-265R",
        "meta_epoch": "2025-12-01T20:00:01.999008",
        "meta_mean_motion": 15.7507436,
        "meta_eccentricity": 0.0002012,
        "meta_inclination": 42.9996,
        "meta_ra_of_asc_node": 118.8749,
        "meta_arg_of_pericenter": 278.916,
        "meta_mean_anomaly": 28.4584,
        "meta_ephemeris_type": 0,
        "meta_classification_type": "U",
        "meta_norad_cat_id": 66531,
        "meta_element_set_no": 999,
        "meta_rev_at_epoch": 324,
        "meta_bstar": -0.00044578,
        "meta_mean_motion_dot": -0.0006851,
        "meta_mean_motion_ddot": 0,
        "tle_line1": "1 66531U 25265R   25335.83335647 -.00068510  00000+0 -44578-3 0  9990",
        "tle_line2": "2 66531  42.9996 118.8749 0002012 278.9160  28.4584 15.75074360  3246"
      },
      "geometry": {
        "type": "Point",
        "coordinates": [
          178.57341451706037,
          39.580673200741046
        ]
      }
    },
    {
      "type": "Feature",
      "properties": {
        "norad_id": 66532,
        "name": "STARLINK-35914",
        "group": "last-30-days",
        "lat": 40.16424362186099,
        "lon": -179.02816438771433,
        "alt_km": 338.85833037340217,
        "timestamp": "2025-12-02T07:10:07.867522+00:00",
        "meta_object_name": "STARLINK-35914",
        "meta_object_id": "2025-265S",
        "meta_epoch": "2025-12-01T20:00:01.999008",
        "meta_mean_motion": 15.75017507,
        "meta_eccentricity": 0.0001537,
        "meta_inclination": 42.9993,
        "meta_ra_of_asc_node": 118.8702,
        "meta_arg_of_pericenter": 265.5784,
        "meta_mean_anomaly": 43.6933,
        "meta_ephemeris_type": 0,
        "meta_classification_type": "U",
        "meta_norad_cat_id": 66532,
        "meta_element_set_no": 999,
        "meta_rev_at_epoch": 324,
        "meta_bstar": 0.00070008,
        "meta_mean_motion_dot": 0.00108349,
        "meta_mean_motion_ddot": 0,
        "tle_line1": "1 66532U 25265S   25335.83335647  .00108349  00000+0  70008-3 0  9991",
        "tle_line2": "2 66532  42.9993 118.8702 0001537 265.5784  43.6933 15.75017507  3245"
      },
      "geometry": {
        "type": "Point",
        "coordinates": [
          -179.02816438771433,
          40.16424362186099
        ]
      }
    },
    {
      "type": "Feature",
      "properties": {
        "norad_id": 66533,
        "name": "STARLINK-35707",
        "group": "last-30-days",
        "lat": 40.70988360216356,
        "lon": -176.5315336200305,
        "alt_km": 338.99821248823173,
        "timestamp": "2025-12-02T07:10:07.867536+00:00",
        "meta_object_name": "STARLINK-35707",
        "meta_object_id": "2025-265T",
        "meta_epoch": "2025-12-01T20:00:01.999008",
        "meta_mean_motion": 15.7515538,
        "meta_eccentricity": 0.0001448,
        "meta_inclination": 42.9997,
        "meta_ra_of_asc_node": 118.866,
        "meta_arg_of_pericenter": 269.9488,
        "meta_mean_anomaly": 41.2642,
        "meta_ephemeris_type": 0,
        "meta_classification_type": "U",
        "meta_norad_cat_id": 66533,
        "meta_element_set_no": 999,
        "meta_rev_at_epoch": 324,
        "meta_bstar": -0.00093218,
        "meta_mean_motion_dot": -0.00142005,
        "meta_mean_motion_ddot": 0,
        "tle_line1": "1 66533U 25265T   25335.83335647 -.00142005  00000+0 -93218-3 0  9999",
        "tle_line2": "2 66533  42.9997 118.8660 0001448 269.9488  41.2642 15.75155380  3246"
      },
      "geometry": {
        "type": "Point",
        "coordinates": [
          -176.5315336200305,
          40.70988360216356
        ]
      }
    }
  ]
}